ONEWEB-0555             
1 56057U 23043M   24203.15111695  .00000052  00000+0  10164-3 0  9996
2 56057  87.9111   7.3443 0002237 108.8455 251.2918 13.16594566 68286
ONEWEB-0557             
1 56058U 23043N   24203.16536525  .00000001  00000+0 -30918-4 0  9996
2 56058  87.9110   7.3667 0002750 106.4898 253.6536 13.16594501 68280
ONEWEB-0558             
1 56059U 23043P   24203.56554649  .00000084  00000+0  17179-3 0  9991
2 56059  87.9281  22.4587 0001485  77.6192 282.5108 13.21825460 67258
ONEWEB-0559             
1 56060U 23043Q   24202.87322826  .00000009  00000+0 -99343-5 0  9999
2 56060  87.9281  22.5937 0001987  72.6017 287.5334 13.21827592 66262
ONEWEB-0566             
1 56061U 23043R   24202.94261086  .00000023  00000+0  24483-4 0  9995
2 56061  87.9280  22.5803 0001439  68.1955 291.9332 13.21824543 66256
ONEWEB-0568             
1 56062U 23043S   24203.18277985  .00000035  00000+0  58113-4 0  9998
2 56062  87.9110   7.3275 0001885 103.0969 257.0372 13.16595426 68306
ONEWEB-0574             
1 56063U 23043T   24203.01200792  .00000034  00000+0  49664-4 0  9993
2 56063  87.9278  22.5604 0001663  91.9616 268.1709 13.21825278 67218
ONEWEB-0575             
1 56064U 23043U   24203.17644320  .00000005  00000+0 -20612-4 0  9991
2 56064  87.9111   7.3381 0002396  96.9312 263.2092 13.16594954 68298
ONEWEB-0576             
1 56065U 23043V   24203.46143750  .00000089  00000+0  19960-3 0  9999
2 56065  87.9111   7.2784 0002060 102.9323 257.2038 13.16594159 68327
ONEWEB-0577             
1 56066U 23043W   24203.46776684  .00000085  00000+0  18759-3 0  9999
2 56066  87.9111   7.2765 0002611  95.0490 265.0939 13.16594048 68353
ONEWEB-0578             
1 56067U 23043X   24202.92369289  .00000087  00000+0  17889-3 0  9994
2 56067  87.9280  22.5774 0001898  94.6776 265.4575 13.21824559 66255
ONEWEB-0579             
1 56068U 23043Y   24203.21702095  .00000124  00000+0  26830-3 0  9992
2 56068  87.9277  22.5155 0001894  77.7183 282.4163 13.21826938 67217
ONEWEB-0581             
1 56069U 23043Z   24203.17010760 -.00000023  00000+0 -94773-4 0  9991
2 56069  87.9110   7.3654 0002353  87.4068 272.7332 13.16594693 68282
ONEWEB-0609             
1 56070U 23043AA  24202.80285892 -.00000064  00000+0 -20462-3 0  9990
2 56070  87.9017  37.7939 0001684  85.4455 274.6868 13.15547937 64871
ONEWEB-0613             
1 56071U 23043AB  24203.55867896 -.00000053  00000+0 -17540-3 0  9995
2 56071  87.9022  37.6407 0001725  75.8139 284.3183 13.15547730 65886
ONEWEB-0630             
1 56072U 23043AC  24203.09758333 -.00000037  00000+0 -13280-3 0  9999
2 56072  87.9018  37.7224 0001620  74.4357 285.6952 13.15548712 65813
ONEWEB-0632             
1 56073U 23043AD  24203.54916921  .00000105  00000+0  24354-3 0  9997
2 56073  87.9018  37.6513 0002111  81.8845 278.2525 13.15550127 65877
ONEWEB-0633             
1 56074U 23043AE  24203.54282738  .00000110  00000+0  25791-3 0  9992
2 56074  87.9015  37.6329 0001416  71.1782 288.9502 13.15548410 65852
ONEWEB-0634             
1 56075U 23043AF  24202.92010822  .00000060  00000+0  12554-3 0  9994
2 56075  87.9022  37.7701 0001451  93.6812 266.4484 13.15549230 64858
ONEWEB-0635             
1 56076U 23043AG  24202.91536313  .00000146  00000+0  35393-3 0  9993
2 56076  87.9019  37.8251 0002183  83.7479 276.3900 13.15547946 64886
ONEWEB-0636             
1 56077U 23043AH  24203.05955406  .00000101  00000+0  23404-3 0  9999
2 56077  87.9018  37.7660 0002129  83.5904 276.5469 13.15549335 65797
ONEWEB-0637             
1 56078U 23043AJ  24202.90110120  .00000078  00000+0  17190-3 0  9997
2 56078  87.9020  37.7746 0002180  86.0696 274.0683 13.15548439 64883
ONEWEB-0647             
1 56079U 23043AK  24202.82028792  .00000046  00000+0  87562-4 0  9998
2 56079  87.9016  37.8083 0001964  79.6319 280.5032 13.15547265 64867
ONEWEB-0651             
1 56080U 23043AL  24202.81552878 -.00000045  00000+0 -15451-3 0  9994
2 56080  87.9020  37.7871 0002179  89.6273 270.5107 13.15548653 66065
ONEWEB-0718             
1 56081U 23043AM  24203.57135621 -.00000113  00000+0 -33355-3 0  9991
2 56081  87.9019  37.6225 0001417 103.3230 256.8058 13.15549564 65880
ONEWEB-0561             
1 56710U 23068A   24202.84135228  .00000110  00000+0  23867-3 0  9991
2 56710  87.9197  53.0107 0002480  77.9272 282.2139 13.20771945 57587
ONEWEB-0668             
1 56711U 23068B   24202.94449242  .00000072  00000+0  15379-3 0  9993
2 56711  87.9103   7.3893 0001687 113.6833 246.4475 13.16592872 60166
ONEWEB-0676             
1 56712U 23068C   24203.53267030  .00000124  00000+0  29005-3 0  9992
2 56712  87.9110   7.2807 0002337  85.8540 274.2858 13.16597045 60865
ONEWEB-0677             
1 56713U 23068D   24202.83030235  .00000206  00000+0  47452-3 0  9997
2 56713  87.9163  53.0037 0001770  88.9895 271.1442 13.20776658 57882
ONEWEB-0678             
1 56714U 23068E   24202.93120456  .00000093  00000+0  21278-3 0  9996
2 56714  87.9024  37.7156 0001790  75.5803 284.5526 13.15548637 57747
ONEWEB-0679             
1 56715U 23068F   24202.96983199  .00000077  00000+0  16668-3 0  9990
2 56715  87.9107   7.3948 0002312 107.4429 252.6954 13.16593012 60813
ONEWEB-0680             
1 56716U 23068G   24202.91738392  .00000077  00000+0  15472-3 0  9991
2 56716  87.9281  22.6234 0001730 117.0303 243.1008 13.21824472 59115
ONEWEB-0681             
1 56717U 23068H   24202.92763008  .00000096  00000+0  20018-3 0  9998
2 56717  87.9280  22.6008 0002987  82.8131 277.3342 13.21828528 59102
ONEWEB-0682             
1 56718U 23068J   24202.80523169 -.00000044  00000+0 -15152-3 0  9996
2 56718  87.9019  37.7812 0001861 105.7182 254.4153 13.15547428 57894
ONEWEB-0683             
1 56719U 23068K   24202.90268438  .00000155  00000+0  37841-3 0  9993
2 56719  87.9018  37.7342 0001762  97.5144 262.6187 13.15548537 57876
ONEWEB-0684             
1 56720U 23068L   24202.91060837  .00000067  00000+0  14483-3 0  9998
2 56720  87.9019  37.8094 0001403  30.5650 329.5562 13.15547154 57701
ONEWEB-0686             
1 56721U 23068M   24202.88353913 -.00000006  00000+0 -49050-4 0  9999
2 56721  87.9106   7.4484 0001630  92.4443 267.6875 13.16593687 60799
ONEWEB-0694             
1 56722U 23068N   24203.52714089 -.00000103  00000+0 -30250-3 0  9996
2 56722  87.9106   7.2391 0001862 108.4476 251.6858 13.16595149 60931
ONEWEB-0696             
1 56723U 23068P   24203.09599854 -.00000033  00000+0 -12160-3 0  9992
2 56723  87.9019  37.7466 0001895  79.4980 280.6364 13.15549129 58543
ONEWEB-0703             
1 56724U 23068Q   24203.10550585 -.00000064  00000+0 -20327-3 0  9991
2 56724  87.9019  37.7652 0002541  59.4884 300.6497 13.15547978 58439
ONEWEB-0721             
1 56725U 23068R   24202.86993090  .00003205  00000+0  36868-3 0  9991
2 56725  86.6788 321.9957 0012029 142.4618 217.7449 14.85412929 64207
